Clinic Name,Address,City,State,Phone,Website,Description
Choice IVF Fertility Aim,"608 Central Lane, Jamnagar, Gujarat",Jamnagar,Gujarat,+91-0152-91782248,https://www.choiceivffertilityaimcare.com,Leading center for assisted reproductive technologies
Fine Fertility IVF Stream,"976 Main Road, Gopalpur, West Bengal",Gopalpur,West Bengal,+91-0146-77626274,https://www.finefertilityivfstreamfertility.com,State-of-the-art fertility treatment center
Good IVF IVF Pool,"859 Nehru Colony, Ambattur, Tamil Nadu",Ambattur,Tamil Nadu,+91-0179-72087660,https://www.goodivfivfpoolhospital.com,Specialized fertility care and reproductive medicine
Pearl Fertility Fertility River,"225 Block Colony, Rohtak, Haryana",Rohtak,Haryana,+91-0125-15880136,https://www.pearlfertilityfertilityriverhealth.com,Specialized fertility care and reproductive medicine
Superb Fertility IVF Plan,"230 Ashok Nagar, Tirunelveli, Tamil Nadu",Tirunelveli,Tamil Nadu,+91-0122-99870573,https://www.superbfertilityivfplancare.com,Advanced assisted reproductive technology center
Chosen Fertility International IVF Center,"955 Tagore Lane, Pallavaram, Tamil Nadu",Pallavaram,Tamil Nadu,+91-0188-91640369,https://www.chosenfertilityinternationalivfcenterhospital.com,Advanced reproductive medicine center with high success rates
Superior Fertility IVF Center,"923 Sector Colony, Shorapur, Karnataka",Shorapur,Karnataka,+91-0120-99346476,https://www.superiorfertilityivfcenterhospital.com,"Complete fertility solutions including IVF, ICSI, and fertility preservation"
Optimal IVF Fertility Reservoir,"491 Indira Road, Visakhapatnam, Andhra Pradesh",Visakhapatnam,Andhra Pradesh,+91-0146-74568532,https://www.optimalivffertilityreservoirfertility.com,Advanced IVF clinic with proven success rates
Royal IVF IVF Viaduct,"968 Gandhi Nagar Street, Ozhukarai, Puducherry",Ozhukarai,Puducherry,+91-0151-46274293,https://www.royalivfivfviaductclinic.com,Specialized IVF clinic with experienced fertility specialists
Sapphire Fertility IVF Plaza,"388 New Complex, Sagar, Madhya Pradesh",Sagar,Madhya Pradesh,+91-0172-65237421,https://www.sapphirefertilityivfplazaclinic.com,"Complete fertility solutions including IVF, ICSI, and fertility preservation"
Emerald IVF IVF Garden,"844 Nehru Street, Rewa, Madhya Pradesh",Rewa,Madhya Pradesh,+91-0127-27690072,https://www.emeraldivfivfgardenivf.com,Leading fertility treatment center offering advanced ART procedures
Perfect IVF Fertility Boat,"234 Ashok Clinic, Agartala, Tripura",Agartala,Tripura,+91-0162-20780540,https://www.perfectivffertilityboatfertility.com,"Complete fertility solutions including IVF, ICSI, and fertility preservation"
Vani Fertility Voyage,"622 Gandhi Nagar Nagar, Begusarai, Bihar",Begusarai,Bihar,+91-0196-59675228,https://www.vanifertilityvoyagefertility.com,Specialized center for infertility diagnosis and treatment
Fine Fertility Fertility Harbor,"301 Ambedkar Street, Bareilly, Uttar Pradesh",Bareilly,Uttar Pradesh,+91-0193-78522302,https://www.finefertilityfertilityharborclinic.com,Leading fertility treatment center offering advanced ART procedures
Premier Fertility Fertility,"804 Sector Colony, Rohtak, Haryana",Rohtak,Haryana,+91-079-75246834,https://www.premierfertilityfertilityivf.com,Comprehensive fertility treatment and reproductive health services
Sapphire Fertility Fertility Treatment,"48 Rajiv Road, Gurgaon, Haryana",Gurgaon,Haryana,+91-0124-40494969,https://www.sapphirefertilityfertilitytreatmentfertility.com,Comprehensive infertility treatment with state-of-the-art technology
Choice IVF IVF Services,"829 Main Road, Mahesana, Gujarat",Mahesana,Gujarat,+91-0184-68179260,https://www.choiceivfivfservicescare.com,Expert fertility specialists providing comprehensive care
Ruby IVF Fertility Prairie,"955 Vijay Road, Haridwar, Uttarakhand",Haridwar,Uttarakhand,+91-0191-36881677,https://www.rubyivffertilityprairieivf.com,Advanced IVF clinic with proven success rates
Exceptional IVF IVF Field,"778 Main Lane, Thanjavur, Tamil Nadu",Thanjavur,Tamil Nadu,+91-0147-21512697,https://www.exceptionalivfivffieldcenter.com,"Complete fertility solutions including IVF, ICSI, and fertility preservation"
Ideal Fertility IVF Plan,"90 Jawaharlal Nehru Road, Bhagalpur, Bihar",Bhagalpur,Bihar,+91-0150-44810974,https://www.idealfertilityivfplanfertility.com,Modern fertility clinic equipped with latest medical technology
Platinum IVF IVF Causeway,"804 Ambedkar Colony, Meerut, Uttar Pradesh",Meerut,Uttar Pradesh,+91-0123-66968528,https://www.platinumivfivfcausewayclinic.com,Expert fertility specialists providing comprehensive care
Perfect IVF IVF Treatment,"112 Old Center, Yamunanagar, Haryana",Yamunanagar,Haryana,+91-0176-47236455,https://www.perfectivfivftreatmentcare.com,Dedicated to helping couples achieve their dream of parenthood
Crystal IVF Fertility Savannah,"158 Gandhi Nagar Lane, Tiruppur, Tamil Nadu",Tiruppur,Tamil Nadu,+91-0160-22018633,https://www.crystalivffertilitysavannahhospital.com,Expert fertility specialists providing comprehensive care
Top IVF Fertility,"645 Central Complex, Vijayanagaram, Andhra Pradesh",Vijayanagaram,Andhra Pradesh,+91-0181-20541834,https://www.topivffertilityfertility.com,Specialized IVF clinic with experienced fertility specialists
Choice IVF Fertility Future,"764 Ashok Road, Gulbarga, Karnataka",Gulbarga,Karnataka,+91-0136-37910291,https://www.choiceivffertilityfutureivf.com,Specialized fertility care and reproductive medicine
Nova IVF Clinic,"106 MG Clinic, Bhubaneswar, Odisha",Bhubaneswar,Odisha,+91-0133-43231105,https://www.novaivfcliniccare.com,Specialized IVF clinic with experienced fertility specialists
Diamond Fertility Fertility & Birthing,"85 Indira Road, Bhubaneswar, Odisha",Bhubaneswar,Odisha,+91-0159-64887294,https://www.diamondfertilityfertilitybirthingclinic.com,Specialized IVF clinic with experienced fertility specialists
Emerald IVF Fertility Expedition,"453 South Lane, Malda, West Bengal",Malda,West Bengal,+91-0133-15110416,https://www.emeraldivffertilityexpeditionhealth.com,Advanced assisted reproductive technology center
Good IVF Fertility Therapy,"355 Bose Center, Loni, Uttar Pradesh",Loni,Uttar Pradesh,+91-0154-48753796,https://www.goodivffertilitytherapyivf.com,Specialized IVF clinic with experienced fertility specialists
Nice Fertility IVF Ferry,"798 Gandhi Avenue, Rampur, Uttar Pradesh",Rampur,Uttar Pradesh,+91-0157-98166931,https://www.nicefertilityivfferryclinic.com,"Complete fertility solutions including IVF, ICSI, and fertility preservation"
Excellent IVF Fertility Path,"936 Shivaji Colony, Saharanpur, Uttar Pradesh",Saharanpur,Uttar Pradesh,+91-0139-44082250,https://www.excellentivffertilitypathivf.com,Comprehensive fertility treatment and reproductive health services
Select Fertility IVF Lake,"955 Ashok Road, Madhyamgram, West Bengal",Madhyamgram,West Bengal,+91-0149-16865923,https://www.selectfertilityivflakeivf.com,Expert fertility specialists providing comprehensive care
Fine Fertility IVF Fountain,"164 Shivaji Nagar, Varanasi, Uttar Pradesh",Varanasi,Uttar Pradesh,+91-0124-20967669,https://www.finefertilityivffountainivf.com,Specialized center for infertility diagnosis and treatment
Premier Fertility Fertility Ridge,"871 Rajiv Clinic, Secunderabad, Telangana",Secunderabad,Telangana,+91-0188-30085180,https://www.premierfertilityfertilityridgehealth.com,Comprehensive infertility treatment with state-of-the-art technology
Optimal IVF Fertility Viaduct,"508 Modi Colony, Shahjahanpur, Uttar Pradesh",Shahjahanpur,Uttar Pradesh,+91-0148-39417069,https://www.optimalivffertilityviaductmedical.com,"Complete fertility solutions including IVF, ICSI, and fertility preservation"
Morpheus Fertility Desert,"608 New Street, Dindigul, Tamil Nadu",Dindigul,Tamil Nadu,+91-0170-22949884,https://www.morpheusfertilitydesertfertility.com,Advanced reproductive medicine center with high success rates
Crystal IVF Fertility Lane,"4 Modi Complex, Burhanpur, Madhya Pradesh",Burhanpur,Madhya Pradesh,+91-0196-74674651,https://www.crystalivffertilitylanefertility.com,Advanced fertility clinic with cutting-edge technology
Optimal IVF Fertility Adventure,"651 New Road, Farrukhabad, Uttar Pradesh",Farrukhabad,Uttar Pradesh,+91-0160-59862083,https://www.optimalivffertilityadventureclinic.com,"Complete fertility solutions including IVF, ICSI, and fertility preservation"
Amazing IVF IVF Lab,"312 Modi Clinic, Kurnool, Andhra Pradesh",Kurnool,Andhra Pradesh,+91-0148-35021654,https://www.amazingivfivflabclinic.com,Complete reproductive health and fertility services
Golden IVF IVF Dam,"288 New Complex, Rourkela, Odisha",Rourkela,Odisha,+91-0178-23390713,https://www.goldenivfivfdamclinic.com,Advanced reproductive medicine center with high success rates
Remarkable Fertility Fertility Therapy,"269 New Nagar, Faridabad, Haryana",Faridabad,Haryana,+91-0151-18541463,https://www.remarkablefertilityfertilitytherapyfertility.com,Advanced fertility clinic with cutting-edge technology
Supreme Fertility Fertility Hope,"377 Block Nagar, Shahjahanpur, Uttar Pradesh",Shahjahanpur,Uttar Pradesh,+91-0146-77258454,https://www.supremefertilityfertilityhopehealth.com,Advanced IVF clinic with proven success rates
Preferred IVF Fertility Drive,"234 Shivaji Complex, Raebareli, Uttar Pradesh",Raebareli,Uttar Pradesh,+91-0185-74649482,https://www.preferredivffertilitydrivemedical.com,State-of-the-art fertility treatment center
Premier Fertility Fertility Prairie,"881 Gandhi Street, Gaya, Bihar",Gaya,Bihar,+91-0187-51488024,https://www.premierfertilityfertilityprairieclinic.com,Comprehensive fertility treatment and reproductive health services
Ultimate IVF Fertility Hill,"505 Shivaji Nagar, Bhatpara, West Bengal",Bhatpara,West Bengal,+91-0125-69535560,https://www.ultimateivffertilityhillivf.com,Leading center for assisted reproductive technologies
Ankur Fertility Services,"225 Raj Avenue, Gwalior, Madhya Pradesh",Gwalior,Madhya Pradesh,+91-0183-68686401,https://www.ankurfertilityservicesfertility.com,Specialized fertility care and reproductive medicine
Preferred IVF Fertility Bay,"317 East Complex, Belgaum, Karnataka",Belgaum,Karnataka,+91-0135-37519369,https://www.preferredivffertilitybaymedical.com,Modern fertility clinic equipped with latest medical technology
Prime Fertility IVF Dam,"867 Gandhi Hospital, Gopalpur, West Bengal",Gopalpur,West Bengal,+91-0162-55990633,https://www.primefertilityivfdamivf.com,Complete reproductive health and fertility services
Remarkable Fertility Fertility Future,"609 Shivaji Lane, Amravati, Maharashtra",Amravati,Maharashtra,+91-033-65294711,https://www.remarkablefertilityfertilityfuturehospital.com,"Complete fertility solutions including IVF, ICSI, and fertility preservation"
Amazing IVF Fertility Aqueduct,"663 Block Street, Ujjain, Madhya Pradesh",Ujjain,Madhya Pradesh,+91-0193-33837336,https://www.amazingivffertilityaqueductmedical.com,Leading center for assisted reproductive technologies
Preferred IVF Fertility Clinic,"409 North Hospital, Aurangabad, Maharashtra",Aurangabad,Maharashtra,+91-0184-55143366,https://www.preferredivffertilityclinicmedical.com,Comprehensive infertility treatment with state-of-the-art technology
Nice Fertility Fertility Island,"888 Phase Road, Pali, Rajasthan",Pali,Rajasthan,+91-0141-18352590,https://www.nicefertilityfertilityislandmedical.com,Advanced reproductive medicine center with high success rates
Bloom Fertility Aqueduct,"492 Old Hospital, Guwahati, Assam",Guwahati,Assam,+91-0141-67986761,https://www.bloomfertilityaqueductcare.com,Advanced reproductive medicine center with high success rates
Ruby IVF IVF Spring,"410 Ambedkar Road, Korba, Chhattisgarh",Korba,Chhattisgarh,+91-0145-16624729,https://www.rubyivfivfspringhealth.com,Comprehensive infertility treatment solutions
Superb Fertility Fertility Center,"905 Main Complex, Rourkela, Odisha",Rourkela,Odisha,+91-0161-55913059,https://www.superbfertilityfertilitycenterhospital.com,Advanced reproductive medicine center with high success rates
Premier Fertility Fertility Mountain,"74 Shivaji Avenue, Srinagar, Jammu and Kashmir",Srinagar,Jammu and Kashmir,+91-0142-29355956,https://www.premierfertilityfertilitymountainclinic.com,Leading fertility treatment center offering advanced ART procedures
Milann Fertility Services,"408 Sardar Patel Clinic, Bokaro, Jharkhand",Bokaro,Jharkhand,+91-0143-70412130,https://www.milannfertilityservicesivf.com,Modern fertility clinic equipped with latest medical technology
Choice IVF IVF Bridge,"907 East Nagar, Salem, Tamil Nadu",Salem,Tamil Nadu,+91-0138-22700024,https://www.choiceivfivfbridgehospital.com,State-of-the-art fertility treatment center
Superior IVF IVF River,"143 Bose Complex, Warangal, Telangana",Warangal,Telangana,+91-033-81533543,https://www.superiorivfivfriverivf.com,Modern fertility clinic equipped with latest medical technology
Top IVF Fertility Journey,"618 Phase Clinic, Satara, Maharashtra",Satara,Maharashtra,+91-022-63646500,https://www.topivffertilityjourneymedical.com,Specialized IVF clinic with experienced fertility specialists
Elite IVF IVF Solutions,"925 Indira Street, Pune, Maharashtra",Pune,Maharashtra,+91-0175-99037241,https://www.eliteivfivfsolutionsmedical.com,Comprehensive fertility treatment and reproductive health services
Exceptional IVF IVF Dream,"209 South Colony, Dindigul, Tamil Nadu",Dindigul,Tamil Nadu,+91-0129-34761455,https://www.exceptionalivfivfdreamivf.com,Advanced reproductive medicine center with high success rates
Emerald IVF Fertility Treatment,"9 Nehru Nagar, Uluberia, West Bengal",Uluberia,West Bengal,+91-0186-42587435,https://www.emeraldivffertilitytreatmentcenter.com,Dedicated to helping couples achieve their dream of parenthood
Supreme Fertility IVF Square,"107 New Hospital, Madurai, Tamil Nadu",Madurai,Tamil Nadu,+91-0131-50688636,https://www.supremefertilityivfsquarehealth.com,Dedicated to helping couples achieve their dream of parenthood
Care IVF Fertility Plateau,"830 MG Avenue, Kurnool, Andhra Pradesh",Kurnool,Andhra Pradesh,+91-022-37454015,https://www.careivffertilityplateaufertility.com,Expert fertility care with personalized treatment plans
Amazing IVF Fertility Crest,"916 Vijay Nagar, Morena, Madhya Pradesh",Morena,Madhya Pradesh,+91-0193-91034105,https://www.amazingivffertilitycrestcare.com,Dedicated to helping couples achieve their dream of parenthood
Fine Fertility IVF Ocean,"729 Ashok Road, Tiruchirappalli, Tamil Nadu",Tiruchirappalli,Tamil Nadu,+91-0141-23858532,https://www.finefertilityivfoceanfertility.com,"Complete fertility solutions including IVF, ICSI, and fertility preservation"
Select Fertility IVF Quest,"233 Ashok Road, Jhansi, Uttar Pradesh",Jhansi,Uttar Pradesh,+91-0175-94311418,https://www.selectfertilityivfquesthospital.com,"Complete fertility solutions including IVF, ICSI, and fertility preservation"
Great IVF Fertility Avenue,"229 Sector Colony, Bokaro, Jharkhand",Bokaro,Jharkhand,+91-0130-39049473,https://www.greativffertilityavenuecenter.com,Advanced assisted reproductive technology center
Excellent IVF IVF Cape,"703 Modi Colony, Tiruchirappalli, Tamil Nadu",Tiruchirappalli,Tamil Nadu,+91-0178-50985325,https://www.excellentivfivfcapeclinic.com,Specialized IVF clinic with experienced fertility specialists
Golden IVF IVF Desert,"950 New Hospital, Bulandshahr, Uttar Pradesh",Bulandshahr,Uttar Pradesh,+91-0183-71066148,https://www.goldenivfivfdesertcenter.com,Comprehensive infertility treatment solutions
Emerald IVF IVF Dream,"131 Phase Road, Kozhikode, Kerala",Kozhikode,Kerala,+91-0180-78198019,https://www.emeraldivfivfdreamivf.com,Expert fertility specialists providing comprehensive care
Chosen Fertility IVF Cruise,"56 North Center, Chapra, Bihar",Chapra,Bihar,+91-0178-85790325,https://www.chosenfertilityivfcruisefertility.com,State-of-the-art fertility treatment center
Remarkable Fertility Fertility Desert,"37 Raj Clinic, Aligarh, Uttar Pradesh",Aligarh,Uttar Pradesh,+91-0139-93472298,https://www.remarkablefertilityfertilitydesertclinic.com,State-of-the-art fertility treatment center
Excellent IVF Fertility Future,"730 Ashok Hospital, Pali, Rajasthan",Pali,Rajasthan,+91-0177-23234824,https://www.excellentivffertilityfuturecenter.com,"Complete fertility solutions including IVF, ICSI, and fertility preservation"
Life Line Fertility Peak,"513 Gandhi Nagar Hospital, Faridabad, Haryana",Faridabad,Haryana,+91-0129-25962059,https://www.lifelinefertilitypeakhospital.com,Modern fertility clinic equipped with latest medical technology
Care IVF IVF Horizon,"684 Ambedkar Nagar, Ajmer, Rajasthan",Ajmer,Rajasthan,+91-0123-66205102,https://www.careivfivfhorizonivf.com,Advanced fertility clinic with cutting-edge technology
Akanksha Fertility Target,"860 Sardar Patel Street, Aligarh, Uttar Pradesh",Aligarh,Uttar Pradesh,+91-011-69557154,https://www.akankshafertilitytargetcenter.com,Dedicated to helping couples achieve their dream of parenthood
Sapphire Fertility Fertility Voyage,"584 Ambedkar Lane, Jaipur, Rajasthan",Jaipur,Rajasthan,+91-0132-46172441,https://www.sapphirefertilityfertilityvoyagecare.com,Dedicated to helping couples achieve their dream of parenthood
Amazing IVF IVF Mission,"6 Tagore Complex, Nangloi Jat, Delhi",Nangloi Jat,Delhi,+91-0136-35994362,https://www.amazingivfivfmissioncare.com,Advanced IVF clinic with proven success rates
Elite IVF IVF Voyage,"992 North Avenue, Ranchi, Jharkhand",Ranchi,Jharkhand,+91-0158-43937070,https://www.eliteivfivfvoyagehealth.com,Complete reproductive health and fertility services
Outstanding IVF IVF Services,"636 Shivaji Colony, Navsari, Gujarat",Navsari,Gujarat,+91-0175-63161635,https://www.outstandingivfivfservicescenter.com,Leading IVF and fertility treatment facility
Excellent IVF IVF Crest,"382 Raj Avenue, Bhubaneswar, Odisha",Bhubaneswar,Odisha,+91-0166-59152565,https://www.excellentivfivfcrestclinic.com,Advanced assisted reproductive technology center
Superb Fertility IVF Boulevard,"204 Phase Avenue, Tiruchirappalli, Tamil Nadu",Tiruchirappalli,Tamil Nadu,+91-0158-87202954,https://www.superbfertilityivfboulevardhealth.com,Dedicated to helping couples achieve their dream of parenthood
Perfect IVF Fertility Road,"525 Old Street, South Dumdum, West Bengal",South Dumdum,West Bengal,+91-0167-30918697,https://www.perfectivffertilityroadcare.com,Advanced fertility clinic with cutting-edge technology
Premium IVF IVF Program,"817 Gandhi Nagar Center, Bijapur, Karnataka",Bijapur,Karnataka,+91-0167-99979692,https://www.premiumivfivfprogramclinic.com,Advanced assisted reproductive technology center
Royal Fertility Super Speciality Hospital,"907 Vijay Street, Guntur, Andhra Pradesh",Guntur,Andhra Pradesh,+91-0191-40799840,https://www.royalfertilitysuperspecialityhospitalcenter.com,Advanced assisted reproductive technology center
Top IVF IVF Canal,"443 MG Hospital, Morena, Madhya Pradesh",Morena,Madhya Pradesh,+91-0197-21603156,https://www.topivfivfcanalclinic.com,Expert fertility care with personalized treatment plans
Vir k Fertility Meadow,"633 New Colony, Kota, Rajasthan",Kota,Rajasthan,+91-0181-72497942,https://www.virkfertilitymeadowfertility.com,Specialized center for infertility diagnosis and treatment
Choice IVF Fertility River,"11 Vijay Clinic, Kolhapur, Maharashtra",Kolhapur,Maharashtra,+91-0183-49244779,https://www.choiceivffertilityriverfertility.com,"Complete fertility solutions including IVF, ICSI, and fertility preservation"
Superb Fertility Fertility Ship,"880 Rajiv Complex, Latur, Maharashtra",Latur,Maharashtra,+91-0147-28524654,https://www.superbfertilityfertilityshiphealth.com,Leading fertility treatment center offering advanced ART procedures
Select Fertility IVF Ridge,"889 South Nagar, Bhalswa Jahangir Pur, Delhi",Bhalswa Jahangir Pur,Delhi,+91-0136-36720609,https://www.selectfertilityivfridgeclinic.com,Specialized IVF clinic with experienced fertility specialists
Crystal IVF IVF Hospital,"784 South Colony, Arrah, Bihar",Arrah,Bihar,+91-0143-56973203,https://www.crystalivfivfhospitalcare.com,Expert fertility care with personalized treatment plans
Exceptional IVF Fertility Future,"646 Old Street, Sagar, Madhya Pradesh",Sagar,Madhya Pradesh,+91-0136-15971476,https://www.exceptionalivffertilityfuturehospital.com,Advanced reproductive medicine center with high success rates
Superior Fertility IVF Creek,"630 East Avenue, Surat, Gujarat",Surat,Gujarat,+91-0163-31359887,https://www.superiorfertilityivfcreekclinic.com,Specialized center for infertility diagnosis and treatment
Great IVF Fertility Viaduct,"132 South Complex, Bhilai, Chhattisgarh",Bhilai,Chhattisgarh,+91-0149-22873817,https://www.greativffertilityviaducthospital.com,Expert fertility specialists providing comprehensive care
Remarkable Fertility Fertility Park,"98 Block Complex, Bhiwandi, Maharashtra",Bhiwandi,Maharashtra,+91-022-74255893,https://www.remarkablefertilityfertilityparkmedical.com,Comprehensive infertility treatment solutions
Wonderful Fertility IVF Care,"595 North Center, Vijayawada, Andhra Pradesh",Vijayawada,Andhra Pradesh,+91-0157-55843718,https://www.wonderfulfertilityivfcarehospital.com,Leading fertility treatment center offering advanced ART procedures
Optimal IVF IVF River,"696 Ashok Colony, Tenali, Andhra Pradesh",Tenali,Andhra Pradesh,+91-0182-58060056,https://www.optimalivfivfrivercare.com,Comprehensive infertility treatment with state-of-the-art technology
Life Line IVF Court,"127 Indira Nagar, Nangloi Jat, Delhi",Nangloi Jat,Delhi,+91-0168-64352217,https://www.lifelineivfcourtcenter.com,Dedicated to helping couples achieve their dream of parenthood
Fine Fertility Fertility Lab,"777 Vijay Clinic, Dhanbad, Jharkhand",Dhanbad,Jharkhand,+91-0135-39352435,https://www.finefertilityfertilitylabmedical.com,Modern fertility clinic equipped with latest medical technology
Best Fertility IVF Park,"921 Tagore Lane, Kanpur, Uttar Pradesh",Kanpur,Uttar Pradesh,+91-0155-94660251,https://www.bestfertilityivfparkmedical.com,"Complete fertility solutions including IVF, ICSI, and fertility preservation"
Elite IVF IVF Park,"186 Sonia Clinic, Ranchi, Jharkhand",Ranchi,Jharkhand,+91-0187-41070587,https://www.eliteivfivfparkmedical.com,Complete reproductive health and fertility services
Artemis IVF Summit,"87 Central Complex, Bhavnagar, Gujarat",Bhavnagar,Gujarat,+91-0193-32898835,https://www.artemisivfsummitfertility.com,Specialized center for infertility diagnosis and treatment
Optimal IVF IVF Court,"518 Main Complex, Ujjain, Madhya Pradesh",Ujjain,Madhya Pradesh,+91-0149-45272670,https://www.optimalivfivfcourtivf.com,Advanced IVF clinic with proven success rates
Preferred IVF IVF Lake,"456 Central Road, Jodhpur, Rajasthan",Jodhpur,Rajasthan,+91-0138-21384004,https://www.preferredivfivflakehealth.com,Specialized IVF clinic with experienced fertility specialists
Golden IVF Fertility Future,"991 Indira Complex, Ghaziabad, Uttar Pradesh",Ghaziabad,Uttar Pradesh,+91-022-56951957,https://www.goldenivffertilityfuturehealth.com,Leading IVF and fertility treatment facility
Best Fertility IVF Aqueduct,"535 Sardar Patel Road, Darbhanga, Bihar",Darbhanga,Bihar,+91-0180-38912797,https://www.bestfertilityivfaqueducthealth.com,Dedicated to helping couples achieve their dream of parenthood
Perfect IVF Fertility Crest,"694 Ambedkar Complex, Ludhiana, Punjab",Ludhiana,Punjab,+91-022-78638143,https://www.perfectivffertilitycrestcenter.com,Specialized IVF clinic with experienced fertility specialists
Leading IVF IVF Square,"407 Vijay Lane, Bokaro, Jharkhand",Bokaro,Jharkhand,+91-0181-47654722,https://www.leadingivfivfsquareclinic.com,Advanced assisted reproductive technology center
Shivani Fertility Savannah,"678 Gandhi Nagar Lane, Siliguri, West Bengal",Siliguri,West Bengal,+91-0155-92266148,https://www.shivanifertilitysavannahivf.com,Specialized center for infertility diagnosis and treatment
Hope IVF Fertility Center,"804 West Avenue, Bidhan Nagar, West Bengal",Bidhan Nagar,West Bengal,+91-0142-80267168,https://www.hopeivffertilitycentercenter.com,"Complete fertility solutions including IVF, ICSI, and fertility preservation"
Emerald IVF IVF Stream,"571 Sonia Avenue, Agra, Uttar Pradesh",Agra,Uttar Pradesh,+91-0144-46082303,https://www.emeraldivfivfstreamhealth.com,Comprehensive infertility treatment solutions
Excel IVF IVF Canal,"408 Vijay Colony, Ratlam, Madhya Pradesh",Ratlam,Madhya Pradesh,+91-0164-37817260,https://www.excelivfivfcanalclinic.com,Advanced assisted reproductive technology center
Great IVF Fertility Mission,"876 Gandhi Nagar Road, Jamnagar, Gujarat",Jamnagar,Gujarat,+91-0144-48912263,https://www.greativffertilitymissionhealth.com,Leading IVF and fertility treatment facility
Emerald IVF IVF Yacht,"219 Sardar Patel Complex, Tirupati, Andhra Pradesh",Tirupati,Andhra Pradesh,+91-0169-39198547,https://www.emeraldivfivfyachtivf.com,Leading fertility treatment center offering advanced ART procedures
Amazing IVF Fertility River,"580 East Colony, Karawal Nagar, Delhi",Karawal Nagar,Delhi,+91-040-61164260,https://www.amazingivffertilityriverivf.com,Advanced fertility clinic with cutting-edge technology
Top IVF Fertility Tunnel,"988 Old Road, Vijayanagaram, Andhra Pradesh",Vijayanagaram,Andhra Pradesh,+91-0128-59442340,https://www.topivffertilitytunnelivf.com,Advanced fertility clinic with cutting-edge technology
Preferred IVF IVF Cruise,"422 New Hospital, Varanasi, Uttar Pradesh",Varanasi,Uttar Pradesh,+91-0124-30147800,https://www.preferredivfivfcruisehospital.com,Advanced fertility clinic with cutting-edge technology
Crystal IVF Fertility Hospital,"784 Rajiv Clinic, Jodhpur, Rajasthan",Jodhpur,Rajasthan,+91-0138-73182532,https://www.crystalivffertilityhospitalcenter.com,Specialized IVF clinic with experienced fertility specialists
Best Fertility Fertility Summit,"444 North Road, Mirzapur, Uttar Pradesh",Mirzapur,Uttar Pradesh,+91-0197-92203370,https://www.bestfertilityfertilitysummithospital.com,Leading IVF and fertility treatment facility
Great IVF Fertility Quest,"298 MG Street, Malda, West Bengal",Malda,West Bengal,+91-0146-10014294,https://www.greativffertilityquestclinic.com,"Complete fertility solutions including IVF, ICSI, and fertility preservation"
Royal IVF IVF Lake,"344 Sonia Street, Gandhinagar, Gujarat",Gandhinagar,Gujarat,+91-0120-77347655,https://www.royalivfivflakemedical.com,Modern fertility clinic equipped with latest medical technology
Nice Fertility Fertility Valley,"124 Phase Hospital, Rajkot, Gujarat",Rajkot,Gujarat,+91-0170-99492471,https://www.nicefertilityfertilityvalleycenter.com,Specialized center for infertility diagnosis and treatment
Leading IVF IVF Ocean,"135 Vijay Nagar, Vijayanagaram, Andhra Pradesh",Vijayanagaram,Andhra Pradesh,+91-0140-35372347,https://www.leadingivfivfoceancenter.com,Advanced IVF clinic with proven success rates
Premium IVF Fertility Avenue,"855 Gandhi Nagar Colony, Nashik, Maharashtra",Nashik,Maharashtra,+91-0166-48595777,https://www.premiumivffertilityavenueivf.com,Complete reproductive health and fertility services
Optimal IVF Fertility Boulevard,"350 Gandhi Nagar, Bikaner, Rajasthan",Bikaner,Rajasthan,+91-0186-80470345,https://www.optimalivffertilityboulevardcenter.com,Advanced fertility clinic with cutting-edge technology
Premium IVF Fertility Park,"210 West Clinic, Asansol, West Bengal",Asansol,West Bengal,+91-0122-35049755,https://www.premiumivffertilityparkhospital.com,Expert fertility specialists providing comprehensive care
Ultimate IVF IVF Savannah,"948 Shivaji Street, Sonipat, Haryana",Sonipat,Haryana,+91-0196-43395427,https://www.ultimateivfivfsavannahhealth.com,Advanced assisted reproductive technology center
Supreme Fertility Fertility Center,"818 MG Complex, Guntur, Andhra Pradesh",Guntur,Andhra Pradesh,+91-0141-47311914,https://www.supremefertilityfertilitycenterhealth.com,Specialized center for infertility diagnosis and treatment
Golden IVF Fertility Sea,"344 West Avenue, Kollam, Kerala",Kollam,Kerala,+91-040-22476467,https://www.goldenivffertilityseacare.com,State-of-the-art fertility treatment center
Top IVF IVF Hope,"839 Ashok Clinic, Tiruchirappalli, Tamil Nadu",Tiruchirappalli,Tamil Nadu,+91-0125-94927797,https://www.topivfivfhopefertility.com,Expert fertility specialists providing comprehensive care
Superior Fertility Infertility Centre,"480 Sector Colony, Durg, Chhattisgarh",Durg,Chhattisgarh,+91-0133-91509589,https://www.superiorfertilityinfertilitycentrecenter.com,Specialized IVF clinic with experienced fertility specialists
Preferred IVF International IVF Center,"257 Block Road, Haridwar, Uttarakhand",Haridwar,Uttarakhand,+91-0161-45825642,https://www.preferredivfinternationalivfcenterfertility.com,Advanced reproductive medicine center with high success rates
Ideal Fertility Fertility Sea,"620 Bose Street, Morena, Madhya Pradesh",Morena,Madhya Pradesh,+91-0181-50785095,https://www.idealfertilityfertilityseacare.com,Leading fertility treatment center offering advanced ART procedures
Elite Fertility Fertility Street,"586 Sector Lane, Nagarcoil, Tamil Nadu",Nagarcoil,Tamil Nadu,+91-0177-97710373,https://www.elitefertilityfertilitystreetclinic.com,State-of-the-art fertility treatment center
Great IVF IVF Well,"66 Gandhi Lane, Singrauli, Madhya Pradesh",Singrauli,Madhya Pradesh,+91-0155-15631417,https://www.greativfivfwellmedical.com,Leading IVF and fertility treatment facility
Wonderful Fertility IVF Ferry,"370 Gandhi Nagar, Sonipat, Haryana",Sonipat,Haryana,+91-0146-79113632,https://www.wonderfulfertilityivfferryfertility.com,Leading center for assisted reproductive technologies
Elite IVF Fertility Adventure,"390 Gandhi Nagar Colony, Vellore, Tamil Nadu",Vellore,Tamil Nadu,+91-0125-31772426,https://www.eliteivffertilityadventurecare.com,State-of-the-art fertility treatment center
Remarkable Fertility IVF Plateau,"285 MG Complex, Berhampur, Odisha",Berhampur,Odisha,+91-0154-26109140,https://www.remarkablefertilityivfplateauhealth.com,Complete reproductive health and fertility services
Premium IVF IVF Square,"755 West Street, Shahjahanpur, Uttar Pradesh",Shahjahanpur,Uttar Pradesh,+91-0161-89296795,https://www.premiumivfivfsquareivf.com,Comprehensive infertility treatment with state-of-the-art technology
Prime Fertility Fertility Valley,"471 Indira Nagar, Patiala, Punjab",Patiala,Punjab,+91-0129-85596012,https://www.primefertilityfertilityvalleycare.com,Specialized fertility care and reproductive medicine
Sapphire Fertility Fertility Garden,"351 Raj Nagar, Mahesana, Gujarat",Mahesana,Gujarat,+91-0147-38137490,https://www.sapphirefertilityfertilitygardenclinic.com,Dedicated to helping couples achieve their dream of parenthood
Top IVF Fertility Sea,"32 Gandhi Complex, Navsari, Gujarat",Navsari,Gujarat,+91-033-11665385,https://www.topivffertilityseacenter.com,Advanced IVF clinic with proven success rates
Remarkable Fertility Fertility Tunnel,"315 Gandhi Nagar Colony, Ballia, Uttar Pradesh",Ballia,Uttar Pradesh,+91-0185-42043878,https://www.remarkablefertilityfertilitytunnelhealth.com,Leading IVF and fertility treatment facility
Hope IVF Fertility Point,"684 MG Colony, Bhatpara, West Bengal",Bhatpara,West Bengal,+91-0166-42088470,https://www.hopeivffertilitypointclinic.com,Dedicated to helping couples achieve their dream of parenthood
Emerald IVF Fertility Street,"943 Sardar Patel Center, Patiala, Punjab",Patiala,Punjab,+91-0161-17997000,https://www.emeraldivffertilitystreetcare.com,Comprehensive infertility treatment with state-of-the-art technology
Good IVF IVF Cape,"778 West Clinic, Muzaffarpur, Bihar",Muzaffarpur,Bihar,+91-0120-42753807,https://www.goodivfivfcapehospital.com,Comprehensive infertility treatment with state-of-the-art technology
Superb Fertility IVF Clinic,"718 Rajiv Road, Jhansi, Uttar Pradesh",Jhansi,Uttar Pradesh,+91-0196-35032807,https://www.superbfertilityivfclinicivf.com,"Complete fertility solutions including IVF, ICSI, and fertility preservation"
Vins Fertility Spring,"610 West Road, Pali, Rajasthan",Pali,Rajasthan,+91-0185-34261385,https://www.vinsfertilityspringcenter.com,Expert fertility specialists providing comprehensive care
Ideal Fertility Fertility Road,"494 Nehru Street, Siliguri, West Bengal",Siliguri,West Bengal,+91-0126-69417253,https://www.idealfertilityfertilityroadmedical.com,"Complete fertility solutions including IVF, ICSI, and fertility preservation"
Choice IVF IVF Therapy,"704 Rajiv Nagar, Hyderabad, Telangana",Hyderabad,Telangana,+91-0172-55856713,https://www.choiceivfivftherapyclinic.com,Modern fertility clinic equipped with latest medical technology
Emerald IVF IVF Expedition,"948 Rajiv Colony, Etawah, Uttar Pradesh",Etawah,Uttar Pradesh,+91-0165-50542954,https://www.emeraldivfivfexpeditioncenter.com,Expert fertility care with personalized treatment plans
Leading IVF Fertility Viaduct,"430 Gandhi Colony, Chapra, Bihar",Chapra,Bihar,+91-0151-52320198,https://www.leadingivffertilityviaductmedical.com,Comprehensive infertility treatment solutions
Chosen Fertility IVF Plan,"181 Raj Nagar, Sikar, Rajasthan",Sikar,Rajasthan,+91-0163-22519196,https://www.chosenfertilityivfplancare.com,"Complete fertility solutions including IVF, ICSI, and fertility preservation"
Optimal IVF IVF Ocean,"634 Gandhi Nagar Nagar, Rajpur Sonarpur, West Bengal",Rajpur Sonarpur,West Bengal,+91-0125-70918255,https://www.optimalivfivfoceancare.com,"Complete fertility solutions including IVF, ICSI, and fertility preservation"
Morpheus Fertility Valley,"693 Ashok Nagar, Jhansi, Uttar Pradesh",Jhansi,Uttar Pradesh,+91-0135-51212906,https://www.morpheusfertilityvalleycenter.com,State-of-the-art fertility treatment center
Pearl Fertility Infertility Centre,"831 Raj Road, Rohtak, Haryana",Rohtak,Haryana,+91-0154-98338012,https://www.pearlfertilityinfertilitycentreivf.com,Advanced assisted reproductive technology center
Prime IVF IVF Lane,"118 Main Lane, Rourkela, Odisha",Rourkela,Odisha,+91-0182-42679376,https://www.primeivfivflaneclinic.com,Advanced fertility clinic with cutting-edge technology
Akanksha Fertility Savannah,"251 Modi Road, Patiala, Punjab",Patiala,Punjab,+91-080-41197252,https://www.akankshafertilitysavannahhealth.com,State-of-the-art fertility treatment center
Top IVF Fertility Meadow,"611 Rajiv Road, Gandhinagar, Gujarat",Gandhinagar,Gujarat,+91-0182-90224682,https://www.topivffertilitymeadowfertility.com,Specialized fertility care and reproductive medicine
Ideal Fertility IVF Future,"373 Old Complex, New Delhi, Delhi",New Delhi,Delhi,+91-0128-72529512,https://www.idealfertilityivffuturehealth.com,Advanced fertility clinic with cutting-edge technology
Choice IVF Fertility Spring,"961 Gandhi Colony, Nandyal, Andhra Pradesh",Nandyal,Andhra Pradesh,+91-0156-66385601,https://www.choiceivffertilityspringcare.com,Modern fertility clinic equipped with latest medical technology
Prime IVF Fertility Dam,"1 MG Colony, Karawal Nagar, Delhi",Karawal Nagar,Delhi,+91-0159-93132538,https://www.primeivffertilitydamclinic.com,Comprehensive infertility treatment with state-of-the-art technology
Best Fertility IVF Road,"189 Nehru Clinic, Salem, Tamil Nadu",Salem,Tamil Nadu,+91-0175-27028552,https://www.bestfertilityivfroadhealth.com,Expert fertility specialists providing comprehensive care
Emerald IVF Fertility Savannah,"147 Nehru Road, Nangloi Jat, Delhi",Nangloi Jat,Delhi,+91-0183-76033418,https://www.emeraldivffertilitysavannahcenter.com,Specialized fertility care and reproductive medicine
Superior Fertility IVF Oasis,"794 Tagore Street, Anand, Gujarat",Anand,Gujarat,+91-0168-29519968,https://www.superiorfertilityivfoasismedical.com,Modern fertility clinic equipped with latest medical technology
Chosen Fertility Fertility Program,"901 Sardar Patel Complex, Bikaner, Rajasthan",Bikaner,Rajasthan,+91-0120-91996382,https://www.chosenfertilityfertilityprogramcare.com,Expert fertility specialists providing comprehensive care
Hope IVF IVF Target,"411 Phase Center, Jamnagar, Gujarat",Jamnagar,Gujarat,+91-020-50318484,https://www.hopeivfivftargethealth.com,Comprehensive infertility treatment with state-of-the-art technology
Premium IVF Fertility Dream,"989 Main Clinic, Sangli, Maharashtra",Sangli,Maharashtra,+91-033-76749471,https://www.premiumivffertilitydreamhealth.com,Complete reproductive health and fertility services
Nice Fertility IVF Yacht,"698 Bose Avenue, Patiala, Punjab",Patiala,Punjab,+91-0159-92188403,https://www.nicefertilityivfyachthealth.com,Leading IVF and fertility treatment facility
Chosen Fertility Fertility Crest,"867 Rajiv Clinic, Katni, Madhya Pradesh",Katni,Madhya Pradesh,+91-0183-86032074,https://www.chosenfertilityfertilitycrestmedical.com,Specialized center for infertility diagnosis and treatment
Crystal IVF IVF Well,"536 Main Road, Madhyamgram, West Bengal",Madhyamgram,West Bengal,+91-0196-64191594,https://www.crystalivfivfwellmedical.com,Comprehensive fertility treatment and reproductive health services
Choice IVF Fertility Creek,"627 Central Lane, Etawah, Uttar Pradesh",Etawah,Uttar Pradesh,+91-0144-71709248,https://www.choiceivffertilitycreekcare.com,Dedicated to helping couples achieve their dream of parenthood
Care IVF IVF Lake,"333 Tagore Road, Coimbatore, Tamil Nadu",Coimbatore,Tamil Nadu,+91-080-19541455,https://www.careivfivflakefertility.com,Leading IVF and fertility treatment facility
Amazing IVF IVF Path,"743 Vijay Center, Nagercoil, Tamil Nadu",Nagercoil,Tamil Nadu,+91-0193-73065898,https://www.amazingivfivfpathclinic.com,Leading center for assisted reproductive technologies
Emerald IVF IVF Hospital,"308 Main Street, Kamarhati, West Bengal",Kamarhati,West Bengal,+91-0180-64876081,https://www.emeraldivfivfhospitalcare.com,Leading center for assisted reproductive technologies
Crystal IVF Fertility Valley,"295 North Clinic, Navsari, Gujarat",Navsari,Gujarat,+91-0143-37855831,https://www.crystalivffertilityvalleyclinic.com,Expert fertility specialists providing comprehensive care
Morpheus IVF Horizon,"709 New Complex, Uluberia, West Bengal",Uluberia,West Bengal,+91-0180-98611601,https://www.morpheusivfhorizonfertility.com,Dedicated to helping couples achieve their dream of parenthood
Ruby IVF IVF Avenue,"382 Shivaji Colony, Vijayawada, Andhra Pradesh",Vijayawada,Andhra Pradesh,+91-0130-79308631,https://www.rubyivfivfavenuemedical.com,Leading IVF and fertility treatment facility
Pearl Fertility Fertility Pool,"571 Bose Complex, Muzaffarpur, Bihar",Muzaffarpur,Bihar,+91-0153-91623473,https://www.pearlfertilityfertilitypoolclinic.com,State-of-the-art fertility treatment center
Leading IVF IVF Field,"48 Bose Colony, Jodhpur, Rajasthan",Jodhpur,Rajasthan,+91-0135-74656354,https://www.leadingivfivffieldcenter.com,Comprehensive infertility treatment with state-of-the-art technology
Select Fertility Fertility Clinic,"488 Block Road, Rewa, Madhya Pradesh",Rewa,Madhya Pradesh,+91-0156-16261342,https://www.selectfertilityfertilityclinicmedical.com,Specialized center for infertility diagnosis and treatment
Perfect IVF IVF Brook,"798 MG Hospital, Moradabad, Uttar Pradesh",Moradabad,Uttar Pradesh,+91-0150-66696504,https://www.perfectivfivfbrookclinic.com,Specialized fertility care and reproductive medicine
Choice IVF Fertility Prairie,"807 Sonia Nagar, Howrah, West Bengal",Howrah,West Bengal,+91-0188-42173871,https://www.choiceivffertilityprairiefertility.com,Advanced assisted reproductive technology center
Prime Fertility Fertility Crest,"506 Modi Street, Secunderabad, Telangana",Secunderabad,Telangana,+91-0186-28230875,https://www.primefertilityfertilitycresthospital.com,Expert fertility specialists providing comprehensive care
Sapphire Fertility IVF Ocean,"357 Nehru Nagar, Vadodara, Gujarat",Vadodara,Gujarat,+91-079-75931441,https://www.sapphirefertilityivfoceanclinic.com,Comprehensive infertility treatment with state-of-the-art technology
Prime Fertility IVF Field,"16 Main Road, Vellore, Tamil Nadu",Vellore,Tamil Nadu,+91-0186-93172481,https://www.primefertilityivffieldivf.com,Advanced IVF clinic with proven success rates
Excellent IVF Fertility Summit,"669 New Road, Bellary, Karnataka",Bellary,Karnataka,+91-0184-29827901,https://www.excellentivffertilitysummithealth.com,Complete reproductive health and fertility services
Nice Fertility Fertility Spring,"854 Old Clinic, Nashik, Maharashtra",Nashik,Maharashtra,+91-0128-12886923,https://www.nicefertilityfertilityspringcenter.com,State-of-the-art fertility treatment center
Sapphire Fertility Fertility Court,"85 Shivaji Center, Biharsharif, Bihar",Biharsharif,Bihar,+91-0137-38505079,https://www.sapphirefertilityfertilitycourtcare.com,Advanced IVF clinic with proven success rates
Amazing IVF Fertility Quest,"388 South Center, Howrah, West Bengal",Howrah,West Bengal,+91-0151-61407257,https://www.amazingivffertilityquestivf.com,Comprehensive infertility treatment with state-of-the-art technology
Supreme Fertility IVF Peninsula,"528 Ambedkar Street, Kozhikode, Kerala",Kozhikode,Kerala,+91-0193-72489133,https://www.supremefertilityivfpeninsulaclinic.com,Leading center for assisted reproductive technologies
Preferred IVF IVF Sea,"84 Gandhi Nagar Lane, Durg, Chhattisgarh",Durg,Chhattisgarh,+91-022-77126096,https://www.preferredivfivfseacenter.com,Comprehensive infertility treatment solutions
Remarkable Fertility IVF Fertility,"399 Jawaharlal Nehru Colony, Karimnagar, Telangana",Karimnagar,Telangana,+91-0121-18791232,https://www.remarkablefertilityivffertilitymedical.com,Complete reproductive health and fertility services
Good IVF IVF Savannah,"965 New Clinic, Sangli, Maharashtra",Sangli,Maharashtra,+91-0125-15364719,https://www.goodivfivfsavannahcenter.com,Dedicated to helping couples achieve their dream of parenthood
Pearl Fertility IVF Bridge,"161 Gandhi Colony, Rajpur Sonarpur, West Bengal",Rajpur Sonarpur,West Bengal,+91-0164-26490143,https://www.pearlfertilityivfbridgefertility.com,Dedicated to helping couples achieve their dream of parenthood
Prime Fertility Fertility Aim,"621 East Lane, Tirupati, Andhra Pradesh",Tirupati,Andhra Pradesh,+91-044-70643051,https://www.primefertilityfertilityaimmedical.com,Expert fertility specialists providing comprehensive care
Amazing IVF IVF Crest,"632 Sector Complex, Panchkula, Haryana",Panchkula,Haryana,+91-0171-95969446,https://www.amazingivfivfcrestmedical.com,Advanced assisted reproductive technology center
Outstanding IVF IVF Garden,"705 Indira Colony, Naihati, West Bengal",Naihati,West Bengal,+91-0157-60068027,https://www.outstandingivfivfgardencenter.com,Specialized fertility care and reproductive medicine
